OBJECT_NAME,OBJECT_ID,EPOCH,MEAN_MOTION,ECCENTRICITY,INCLINATION,RA_OF_ASC_NODE,ARG_OF_PERICENTER,MEAN_ANOMALY,EPHEMERIS_TYPE,CLASSIFICATION_TYPE,NORAD_CAT_ID,ELEMENT_SET_NO,REV_AT_EPOCH,BSTAR,MEAN_MOTION_DOT,MEAN_MOTION_DDOT
STARLINK-37743,2026-122L,2026-07-09T01:21:48.069504,15.33468516,.00007433,97.2847,219.7166,85.4143,274.7185,0,U,69339,999,554,.57566342E-3,.18569E-3,0
STARLINK-37780,2026-122M,2026-07-09T01:17:52.874016,15.33464370,.00022141,97.2848,219.7213,88.8771,271.2726,0,U,69340,999,554,.60702481E-3,.19586E-3,0
STARLINK-37781,2026-122N,2026-07-09T20:00:01.999008,15.33435799,.000097,97.2853,220.4942,109.8338,244.3452,0,U,69341,999,604,-.92597E-4,-.3062E-4,0
STARLINK-37782,2026-122P,2026-07-08T15:46:14.478528,15.33448360,.00012603,97.2840,219.3453,97.1351,263.0035,0,U,69342,999,548,.41994622E-3,.13508E-3,0
STARLINK-37776,2026-122Q,2026-07-08T14:08:22.756992,15.33441433,.00015559,97.2867,219.2823,141.3421,218.7934,0,U,69343,999,547,.62751667E-3,.20236E-3,0
STARLINK-37786,2026-122R,2026-07-09T01:02:12.778944,15.33457268,.00017199,97.2860,219.7362,90.7106,269.4333,0,U,69344,999,554,.4315552E-3,.13888E-3,0
STARLINK-37785,2026-122S,2026-07-08T15:34:30.160416,15.33442086,.00010266,97.2851,219.3551,92.2618,267.8742,0,U,69345,999,548,.3700741E-3,.1189E-3,0
STARLINK-37773,2026-122T,2026-07-09T00:54:24.748416,15.33425716,.00023734,97.2849,219.7430,92.1897,267.9617,0,U,69346,999,554,.70397787E-3,.22708E-3,0
STARLINK-37744,2026-122U,2026-07-09T20:00:01.999008,15.37320329,.0001345,97.2861,220.5292,94.7819,340.5650,0,U,69347,999,605,-.23663E-1,-.791999E-2,0
STARLINK-37775,2026-122V,2026-07-09T20:00:01.999008,15.33471275,.0000489,97.2859,220.5422,56.1688,43.0287,0,U,69348,999,610,.32013E-3,.10282E-3,0
STARLINK-37777,2026-122W,2026-07-09T00:42:38.190816,15.33456250,.0002062,97.2842,219.7541,103.9537,256.1936,0,U,69349,999,554,.43514883E-3,.14005E-3,0
STARLINK-37779,2026-122X,2026-07-09T00:38:43.508544,15.33475785,.00017877,97.2874,219.7614,101.3011,258.8432,0,U,69350,999,554,.57625687E-3,.18593E-3,0
STARLINK-37549,2026-122Y,2026-07-09T20:00:01.999008,15.33435145,.0000975,97.2857,220.5610,68.4577,75.7773,0,U,69351,999,605,.27527E-3,.8819E-4,0
STARLINK-37778,2026-122Z,2026-07-09T20:00:01.999008,15.33423864,.0001554,97.2858,220.5664,104.4182,54.8371,0,U,69352,999,607,.10275E-3,.3241E-4,0
STARLINK-37651,2026-123A,2026-07-09T16:00:01.998720,15.75226545,.0001075,53.1596,129.4813,99.5057,31.9183,0,U,69353,999,607,.67283E-4,.968E-4,0
STARLINK-37652,2026-123B,2026-07-09T19:20:21.760224,15.81008565,.0001056,53.1569,128.4657,64.9636,295.1496,0,U,69354,999,561,.10915E-2,.221732E-2,0
STARLINK-37593,2026-123C,2026-07-09T20:00:01.999008,15.75267121,.000118,53.1585,128.4891,80.4505,355.7337,0,U,69355,999,610,-.3878E-3,-.5974E-3,0
STARLINK-37597,2026-123D,2026-07-08T08:07:19.041312,15.75265023,.00012128,53.1594,136.3997,82.7573,277.3585,0,U,69356,999,537,.10454269E-2,.162919E-2,0
STARLINK-37598,2026-123E,2026-07-09T18:28:58.223712,15.75269012,.0001317,53.1595,128.9645,110.4470,249.6692,0,U,69357,999,560,.11807E-2,.184584E-2,0
STARLINK-37602,2026-123F,2026-07-09T18:16:02.169408,15.75273510,.000125,53.1588,129.6432,143.4618,216.6488,0,U,69358,999,559,.13861E-2,.21772E-2,0
STARLINK-37600,2026-123G,2026-07-09T05:59:04.115616,15.75381118,.00017332,53.1545,132.1353,54.3078,305.8103,0,U,69359,999,551,.11309528E-2,.177508E-2,0
STARLINK-37599,2026-123H,2026-07-09T18:58:49.071072,15.80971047,.0000889,53.1566,128.3608,119.2321,240.8791,0,U,69360,999,561,.13535E-2,.276424E-2,0
STARLINK-37039,2026-123J,2026-07-09T06:57:16.861536,15.75214071,.00013057,53.1578,131.6658,102.4085,257.7082,0,U,69361,999,552,.11872472E-2,.185187E-2,0
STARLINK-37040,2026-123K,2026-07-09T00:00:02.000160,15.75208347,.00013776,53.1592,132.3123,84.5608,97.7962,0,U,69362,999,609,-.31181385E-3,-.48103E-3,0
STARLINK-37582,2026-123L,2026-07-08T08:26:55.125024,15.75316279,.00007918,53.1554,136.4876,96.8246,263.2864,0,U,69363,999,537,.13468458E-2,.211782E-2,0
STARLINK-37309,2026-123M,2026-07-09T18:16:21.677664,15.75255228,.0001179,53.1586,128.9026,105.5150,254.6001,0,U,69364,999,560,.10541E-2,.164225E-2,0
STARLINK-37436,2026-123N,2026-07-09T00:00:02.000160,15.75240433,.00013599,53.1583,132.2098,102.6426,129.3746,0,U,69365,999,598,-.57566275E-3,-.87978E-3,0
STARLINK-37581,2026-123P,2026-07-09T20:00:01.999008,15.75275498,.0001049,53.1593,127.9608,101.7921,230.0894,0,U,69366,999,611,-.31699E-3,-.49026E-3,0
STARLINK-37683,2026-123Q,2026-07-08T07:40:42.451392,15.75266037,.00011978,53.1574,136.2685,93.2925,266.8232,0,U,69367,999,537,.12219702E-2,.191192E-2,0
STARLINK-37687,2026-123R,2026-07-09T15:10:30.434016,15.80925291,.0000771,53.1575,128.7773,180.2563,179.8459,0,U,69368,999,559,.12325E-2,.250351E-2,0
STARLINK-37631,2026-123S,2026-07-08T09:51:36.331488,15.75287219,.00009087,53.1582,135.4008,128.6187,231.4914,0,U,69369,999,539,.11852639E-2,.185475E-2,0
STARLINK-37673,2026-123T,2026-07-09T18:22:53.722848,15.75272060,.0001118,53.1594,128.9330,101.0469,259.0677,0,U,69370,999,560,.92715E-3,.144134E-2,0
STARLINK-37645,2026-123U,2026-07-09T05:52:23.128032,15.75253867,.000114,53.1566,131.3641,38.6950,321.4152,0,U,69371,999,552,.11128233E-2,.1736E-2,0
STARLINK-37688,2026-123V,2026-07-09T00:00:02.000160,15.75235163,.00013709,53.1596,132.4161,100.1040,30.7408,0,U,69372,999,605,-.61899598E-3,-.94459E-3,0
STARLINK-37685,2026-123W,2026-07-09T18:11:22.349184,15.80889766,.0001553,53.1569,128.1400,33.8649,326.2473,0,U,69373,999,561,.94431E-3,.189982E-2,0
STARLINK-37632,2026-123X,2026-07-09T18:10:17.989824,15.80922202,.0001121,53.1571,128.1312,118.5888,241.5248,0,U,69374,999,561,.94415E-3,.190238E-2,0
STARLINK-37454,2026-123Y,2026-07-09T00:00:02.000160,15.75246975,.00010058,53.1581,132.1539,81.4721,176.3438,0,U,69375,999,605,-.84798892E-3,-.12871E-2,0
STARLINK-37485,2026-123Z,2026-07-09T17:56:17.488032,15.75243145,.0001111,53.1558,128.8044,92.2392,267.8755,0,U,69376,999,560,.91616E-3,.142206E-2,0
STARLINK-37439,2026-123AA,2026-07-09T20:00:01.999008,15.75286090,.0000923,53.1600,127.6882,104.2825,358.2187,0,U,69377,999,608,-.75506E-3,-.115052E-2,0
STARLINK-37376,2026-123AB,2026-07-09T07:42:53.204832,15.75251499,.00015821,53.1599,131.1338,123.8199,236.2972,0,U,69378,999,553,.97651924E-3,.151848E-2,0
STARLINK-37383,2026-123AC,2026-07-09T16:00:01.998720,15.75216141,.0000897,53.1589,128.9963,114.1794,249.0310,0,U,69379,999,611,.21158E-3,.31883E-3,0
STARLINK-37411,2026-123AD,2026-07-09T16:28:19.460640,15.80964766,.0000829,53.1571,128.3933,96.5663,263.5454,0,U,69380,999,560,.14528E-2,.297399E-2,0
STARLINK-37427,2026-123AE,2026-07-09T16:22:24.888000,15.80915470,.0002118,53.1563,128.3648,136.2450,223.8741,0,U,69381,999,560,.10337E-2,.208736E-2,0
STARLINK-37537,2026-126A,2026-07-09T18:56:48.172416,15.75220797,.0001135,97.2848,51.8745,82.2416,277.8978,0,U,69420,999,630,.93685E-3,.142145E-2,0
STARLINK-37585,2026-126B,2026-07-09T17:10:04.726272,15.75225065,.0001332,97.2853,51.8224,80.1684,279.9732,0,U,69421,999,629,.89128E-3,.135139E-2,0
STARLINK-37573,2026-126C,2026-07-09T19:01:22.501056,15.75220001,.0000998,97.2843,51.8714,125.5663,234.5696,0,U,69422,999,630,.84987E-3,.128728E-2,0
STARLINK-37820,2026-126D,2026-07-09T14:48:16.970976,15.75233751,.0001985,97.2851,51.8052,140.6873,219.4536,0,U,69423,999,628,.8846E-3,.134165E-2,0
STARLINK-37822,2026-126E,2026-07-09T15:11:39.718176,15.75232917,.0001119,97.2838,51.7821,124.3565,235.7806,0,U,69424,999,628,.66468E-3,.10037E-2,0
STARLINK-37836,2026-126F,2026-07-09T14:44:15.658368,15.75178807,.0001836,97.2855,51.8094,92.7926,267.3550,0,U,69425,999,628,.46373E-3,.69573E-3,0
STARLINK-37850,2026-126G,2026-07-09T14:51:20.464704,15.75168738,.0001087,97.2843,51.8022,43.6443,316.4908,0,U,69426,999,633,.10401E-2,.157767E-2,0
STARLINK-37823,2026-126H,2026-07-09T07:43:24.640608,15.75220781,.00013312,97.2841,51.4400,86.9840,273.1577,0,U,69427,999,623,.98888664E-3,.15019E-2,0
STARLINK-37834,2026-126J,2026-07-09T15:33:00.553248,15.75248811,.0004839,97.2749,51.7544,124.5223,235.6500,0,U,69428,999,628,.11086E-2,.169051E-2,0
STARLINK-37857,2026-126K,2026-07-09T15:16:44.674752,15.75230441,.0001191,97.2841,51.7772,63.4884,296.6503,0,U,69429,999,628,.1176E-2,.17933E-2,0
STARLINK-37866,2026-126L,2026-07-09T14:41:10.472928,15.75235003,.0001231,97.2863,51.8122,92.6797,267.4609,0,U,69430,999,633,.10907E-2,.166086E-2,0
STARLINK-37555,2026-126M,2026-07-09T14:59:28.106304,15.75204363,.0001221,97.2839,51.7947,92.8769,267.2636,0,U,69431,999,633,.71827E-3,.108441E-2,0
STARLINK-37870,2026-126N,2026-07-09T14:54:23.116032,15.75204125,.0000983,97.2836,51.7998,114.2211,245.9157,0,U,69432,999,628,.10797E-2,.164143E-2,0
STARLINK-37872,2026-126P,2026-07-09T19:06:57.951648,15.75536706,.0001954,97.2834,52.0187,79.1624,280.9862,0,U,69433,999,631,.95002E-3,.146207E-2,0
STARLINK-37815,2026-126Q,2026-07-09T18:47:08.285856,15.75242058,.0001267,97.2851,51.8847,160.8646,199.2667,0,U,69434,999,630,.86528E-3,.131228E-2,0
STARLINK-37801,2026-126R,2026-07-09T07:46:27.770592,15.75201843,.00014022,97.2842,51.4382,92.7058,267.4368,0,U,69435,999,628,.92057556E-3,.139517E-2,0
STARLINK-37800,2026-126S,2026-07-09T13:55:25.860288,15.75198995,.0001399,97.2848,51.7013,121.5222,238.6180,0,U,69436,999,627,.82543E-3,.124853E-2,0
STARLINK-37792,2026-126T,2026-07-09T12:52:25.182048,15.75205695,.0000957,97.2845,51.7609,81.3607,278.7767,0,U,69437,999,632,.10068E-3,.14924E-3,0
STARLINK-37783,2026-126U,2026-07-09T19:10:01.748640,15.75210142,.0001435,97.2859,52.0180,29.5507,330.5839,0,U,69438,999,636,.10509E-2,.159721E-2,0
STARLINK-37771,2026-126V,2026-07-09T18:53:12.109344,15.75208981,.0001166,97.2860,51.8784,113.4227,246.7161,0,U,69439,999,630,.67552E-4,.9966E-4,0
STARLINK-37747,2026-126W,2026-07-09T15:05:33.966240,15.75237637,.0001101,97.2848,51.7887,71.3707,288.7678,0,U,69440,999,628,.10531E-2,.160251E-2,0
STARLINK-37629,2026-127A,2026-07-09T18:23:11.465088,15.75257821,.0001942,53.1590,150.1985,11.7309,348.3756,0,U,69443,999,496,.889E-3,.137994E-2,0
